CCSDS_OMM_VERS = 2.0
CREATION_DATE  = 
ORIGINATOR     = 

OBJECT_NAME    = SL-16 R/B
OBJECT_ID      = 1998-045B
CENTER_NAME    = EARTH
REF_FRAME      = TEME
TIME_SYSTEM    = UTC
MEAN_ELEMENT_THEORY = SGP/SGP4

EPOCH          = 2026-03-22T22:08:49.984800
MEAN_MOTION    = 14.16195501
ECCENTRICITY   = .00076616
INCLINATION    = 71.0117
RA_OF_ASC_NODE = 153.7473
ARG_OF_PERICENTER = 347.0634
MEAN_ANOMALY   = 13.0291

EPHEMERIS_TYPE = 0
CLASSIFICATION_TYPE = U
NORAD_CAT_ID   = 25407
ELEMENT_SET_NO = 999
REV_AT_EPOCH   = 42897
BSTAR          = -.22109171E-4
MEAN_MOTION_DOT = -.92E-6
MEAN_MOTION_DDOT = 0

CCSDS_OMM_VERS = 2.0
CREATION_DATE  = 
ORIGINATOR     = 

OBJECT_NAME    = ISS (ZARYA)
OBJECT_ID      = 1998-067A
CENTER_NAME    = EARTH
REF_FRAME      = TEME
TIME_SYSTEM    = UTC
MEAN_ELEMENT_THEORY = SGP/SGP4

EPOCH          = 2026-03-22T19:24:01.008864
MEAN_MOTION    = 15.48467485
ECCENTRICITY   = .00061805
INCLINATION    = 51.6342
RA_OF_ASC_NODE = 7.5089
ARG_OF_PERICENTER = 221.2634
MEAN_ANOMALY   = 138.7888

EPHEMERIS_TYPE = 0
CLASSIFICATION_TYPE = U
NORAD_CAT_ID   = 25544
ELEMENT_SET_NO = 999
REV_AT_EPOCH   = 55836
BSTAR          = .29809493E-3
MEAN_MOTION_DOT = .15711E-3
MEAN_MOTION_DDOT = 0

CCSDS_OMM_VERS = 2.0
CREATION_DATE  = 
ORIGINATOR     = 

OBJECT_NAME    = CZ-4B R/B
OBJECT_ID      = 1999-025C
CENTER_NAME    = EARTH
REF_FRAME      = TEME
TIME_SYSTEM    = UTC
MEAN_ELEMENT_THEORY = SGP/SGP4

EPOCH          = 2026-03-22T21:07:04.645632
MEAN_MOTION    = 14.18267801
ECCENTRICITY   = .00361629
INCLINATION    = 98.6600
RA_OF_ASC_NODE = 125.8475
ARG_OF_PERICENTER = 307.9892
MEAN_ANOMALY   = 225.0438

EPHEMERIS_TYPE = 0
CLASSIFICATION_TYPE = U
NORAD_CAT_ID   = 25732
ELEMENT_SET_NO = 999
REV_AT_EPOCH   = 39003
BSTAR          = .36919757E-4
MEAN_MOTION_DOT = .33E-6
MEAN_MOTION_DDOT = 0

CCSDS_OMM_VERS = 2.0
CREATION_DATE  = 
ORIGINATOR     = 

OBJECT_NAME    = OKEAN-O
OBJECT_ID      = 1999-039A
CENTER_NAME    = EARTH
REF_FRAME      = TEME
TIME_SYSTEM    = UTC
MEAN_ELEMENT_THEORY = SGP/SGP4

EPOCH          = 2026-03-22T21:36:15.624576
MEAN_MOTION    = 14.80355680
ECCENTRICITY   = .0000941
INCLINATION    = 97.9414
RA_OF_ASC_NODE = 141.6556
ARG_OF_PERICENTER = 81.3814
MEAN_ANOMALY   = 278.7505

EPHEMERIS_TYPE = 0
CLASSIFICATION_TYPE = U
NORAD_CAT_ID   = 25860
ELEMENT_SET_NO = 999
REV_AT_EPOCH   = 43634
BSTAR          = .96543121E-4
MEAN_MOTION_DOT = .684E-5
MEAN_MOTION_DDOT = 0

CCSDS_OMM_VERS = 2.0
CREATION_DATE  = 
ORIGINATOR     = 

OBJECT_NAME    = SL-16 R/B
OBJECT_ID      = 1999-039B
CENTER_NAME    = EARTH
REF_FRAME      = TEME
TIME_SYSTEM    = UTC
MEAN_ELEMENT_THEORY = SGP/SGP4

EPOCH          = 2026-03-22T20:49:22.692864
MEAN_MOTION    = 14.81748750
ECCENTRICITY   = .0014101
INCLINATION    = 97.9938
RA_OF_ASC_NODE = 140.9429
ARG_OF_PERICENTER = 210.0978
MEAN_ANOMALY   = 149.9426

EPHEMERIS_TYPE = 0
CLASSIFICATION_TYPE = U
NORAD_CAT_ID   = 25861
ELEMENT_SET_NO = 999
REV_AT_EPOCH   = 43881
BSTAR          = .81211425E-4
MEAN_MOTION_DOT = .587E-5
MEAN_MOTION_DDOT = 0

CCSDS_OMM_VERS = 2.0
CREATION_DATE  = 
ORIGINATOR     = 

OBJECT_NAME    = DELTA 2 R/B
OBJECT_ID      = 1999-041E
CENTER_NAME    = EARTH
REF_FRAME      = TEME
TIME_SYSTEM    = UTC
MEAN_ELEMENT_THEORY = SGP/SGP4

EPOCH          = 2026-03-22T21:24:43.265088
MEAN_MOTION    = 14.11868014
ECCENTRICITY   = .05026194
INCLINATION    = 51.7601
RA_OF_ASC_NODE = 248.5410
ARG_OF_PERICENTER = 27.3751
MEAN_ANOMALY   = 335.2733

EPHEMERIS_TYPE = 0
CLASSIFICATION_TYPE = U
NORAD_CAT_ID   = 25876
ELEMENT_SET_NO = 999
REV_AT_EPOCH   = 36489
BSTAR          = .10861534E-3
MEAN_MOTION_DOT = .428E-5
MEAN_MOTION_DDOT = 0

CCSDS_OMM_VERS = 2.0
CREATION_DATE  = 
ORIGINATOR     = 

OBJECT_NAME    = HELIOS 1B
OBJECT_ID      = 1999-064A
CENTER_NAME    = EARTH
REF_FRAME      = TEME
TIME_SYSTEM    = UTC
MEAN_ELEMENT_THEORY = SGP/SGP4

EPOCH          = 2026-03-22T16:40:12.043776
MEAN_MOTION    = 14.87746740
ECCENTRICITY   = .00020912
INCLINATION    = 98.1680
RA_OF_ASC_NODE = 344.3193
ARG_OF_PERICENTER = 57.0175
MEAN_ANOMALY   = 303.1242

EPHEMERIS_TYPE = 0
CLASSIFICATION_TYPE = U
NORAD_CAT_ID   = 25977
ELEMENT_SET_NO = 999
REV_AT_EPOCH   = 68719
BSTAR          = .19473539E-3
MEAN_MOTION_DOT = .1718E-4
MEAN_MOTION_DDOT = 0

CCSDS_OMM_VERS = 2.0
CREATION_DATE  = 
ORIGINATOR     = 

OBJECT_NAME    = TERRA
OBJECT_ID      = 1999-068A
CENTER_NAME    = EARTH
REF_FRAME      = TEME
TIME_SYSTEM    = UTC
MEAN_ELEMENT_THEORY = SGP/SGP4

EPOCH          = 2026-03-22T22:19:05.391264
MEAN_MOTION    = 14.61028190
ECCENTRICITY   = .00034087
INCLINATION    = 97.9565
RA_OF_ASC_NODE = 134.8571
ARG_OF_PERICENTER = 123.2392
MEAN_ANOMALY   = 281.3338

EPHEMERIS_TYPE = 0
CLASSIFICATION_TYPE = U
NORAD_CAT_ID   = 25994
ELEMENT_SET_NO = 999
REV_AT_EPOCH   = 39701
BSTAR          = .10418063E-3
MEAN_MOTION_DOT = .467E-5
MEAN_MOTION_DDOT = 0

CCSDS_OMM_VERS = 2.0
CREATION_DATE  = 
ORIGINATOR     = 

OBJECT_NAME    = SL-16 R/B
OBJECT_ID      = 2000-006B
CENTER_NAME    = EARTH
REF_FRAME      = TEME
TIME_SYSTEM    = UTC
MEAN_ELEMENT_THEORY = SGP/SGP4

EPOCH          = 2026-03-22T22:36:00.910080
MEAN_MOTION    = 14.15823927
ECCENTRICITY   = .00160759
INCLINATION    = 71.0007
RA_OF_ASC_NODE = 69.9699
ARG_OF_PERICENTER = 169.2920
MEAN_ANOMALY   = 190.8548

EPHEMERIS_TYPE = 0
CLASSIFICATION_TYPE = U
NORAD_CAT_ID   = 26070
ELEMENT_SET_NO = 999
REV_AT_EPOCH   = 35043
BSTAR          = .65971426E-4
MEAN_MOTION_DOT = .82E-6
MEAN_MOTION_DDOT = 0

CCSDS_OMM_VERS = 2.0
CREATION_DATE  = 
ORIGINATOR     = 

OBJECT_NAME    = TITAN 4B R/B
OBJECT_ID      = 2000-047B
CENTER_NAME    = EARTH
REF_FRAME      = TEME
TIME_SYSTEM    = UTC
MEAN_ELEMENT_THEORY = SGP/SGP4

EPOCH          = 2026-03-22T22:44:30.083424
MEAN_MOTION    = 15.09685652
ECCENTRICITY   = .00395189
INCLINATION    = 67.9917
RA_OF_ASC_NODE = 3.2277
ARG_OF_PERICENTER = 19.8325
MEAN_ANOMALY   = 340.4349

EPHEMERIS_TYPE = 0
CLASSIFICATION_TYPE = U
NORAD_CAT_ID   = 26474
ELEMENT_SET_NO = 999
REV_AT_EPOCH   = 39491
BSTAR          = .30994264E-3
MEAN_MOTION_DOT = .4963E-4
MEAN_MOTION_DDOT = 0

CCSDS_OMM_VERS = 2.0
CREATION_DATE  = 
ORIGINATOR     = 

OBJECT_NAME    = ENVISAT
OBJECT_ID      = 2002-009A
CENTER_NAME    = EARTH
REF_FRAME      = TEME
TIME_SYSTEM    = UTC
MEAN_ELEMENT_THEORY = SGP/SGP4

EPOCH          = 2026-03-22T21:12:55.781280
MEAN_MOTION    = 14.39041346
ECCENTRICITY   = .00012552
INCLINATION    = 98.3750
RA_OF_ASC_NODE = 35.1689
ARG_OF_PERICENTER = 81.7231
MEAN_ANOMALY   = 295.5407

EPHEMERIS_TYPE = 0
CLASSIFICATION_TYPE = U
NORAD_CAT_ID   = 27386
ELEMENT_SET_NO = 999
REV_AT_EPOCH   = 26107
BSTAR          = .52993434E-4
MEAN_MOTION_DOT = .121E-5
MEAN_MOTION_DDOT = 0

CCSDS_OMM_VERS = 2.0
CREATION_DATE  = 
ORIGINATOR     = 

OBJECT_NAME    = IDEFIX & ARIANE 42P R/B
OBJECT_ID      = 2002-021B
CENTER_NAME    = EARTH
REF_FRAME      = TEME
TIME_SYSTEM    = UTC
MEAN_ELEMENT_THEORY = SGP/SGP4

EPOCH          = 2026-03-22T20:24:46.216224
MEAN_MOTION    = 14.31034663
ECCENTRICITY   = .00123244
INCLINATION    = 98.5885
RA_OF_ASC_NODE = 20.3006
ARG_OF_PERICENTER = 144.0734
MEAN_ANOMALY   = 216.1280

EPHEMERIS_TYPE = 0
CLASSIFICATION_TYPE = U
NORAD_CAT_ID   = 27422
ELEMENT_SET_NO = 999
REV_AT_EPOCH   = 24590
BSTAR          = .12089619E-3
MEAN_MOTION_DOT = .275E-5
MEAN_MOTION_DDOT = 0

