SL-16 R/B               
1 25407U 98045B   26081.92280075 -.00000092  00000+0 -22109-4 0  9994
2 25407  71.0117 153.7473 0007661 347.0634  13.0291 14.16195501428973
ISS (ZARYA)             
1 25544U 98067A   26081.80834501  .00015711  00000+0  29809-3 0  9991
2 25544  51.6342   7.5089 0006180 221.2634 138.7888 15.48467485558369
CZ-4B R/B               
1 25732U 99025C   26081.87991488  .00000033  00000+0  36920-4 0  9994
2 25732  98.6600 125.8475 0036162 307.9892 225.0438 14.18267801390035
OKEAN-O                 
1 25860U 99039A   26081.90018084  .00000684  00000+0  96543-4 0  9996
2 25860  97.9414 141.6556 0000941  81.3814 278.7505 14.80355680436348
SL-16 R/B               
1 25861U 99039B   26081.86762376  .00000587  00000+0  81211-4 0  9990
2 25861  97.9938 140.9429 0014101 210.0978 149.9426 14.81748750438816
DELTA 2 R/B             
1 25876U 99041E   26081.89216742  .00000428  00000+0  10862-3 0  9990
2 25876  51.7601 248.5410 0502619  27.3751 335.2733 14.11868014364892
HELIOS 1B               
1 25977U 99064A   26081.69458384  .00001718  00000+0  19474-3 0  9996
2 25977  98.1680 344.3193 0002091  57.0175 303.1242 14.87746740687192
TERRA                   
1 25994U 99068A   26081.92992351  .00000467  00000+0  10418-3 0  9991
2 25994  97.9565 134.8571 0003408 123.2392 281.3338 14.61028190397018
SL-16 R/B               
1 26070U 00006B   26081.94167720  .00000082  00000+0  65971-4 0  9995
2 26070  71.0007  69.9699 0016075 169.2920 190.8548 14.15823927350430
TITAN 4B R/B            
1 26474U 00047B   26081.94757041  .00004963  00000+0  30994-3 0  9997
2 26474  67.9917   3.2277 0039518  19.8325 340.4349 15.09685652394919
ENVISAT                 
1 27386U 02009A   26081.88397895  .00000121  00000+0  52993-4 0  9996
2 27386  98.3750  35.1689 0001255  81.7231 295.5407 14.39041346261070
IDEFIX & ARIANE 42P R/B 
1 27422U 02021B   26081.85053491  .00000275  00000+0  12090-3 0  9992
2 27422  98.5885  20.3006 0012324 144.0734 216.1280 14.31034663245909
